{
  "type": "FeatureCollection",
  "features": [
    {
      "type": "Feature",
      "properties": {
        "norad_id": 35915,
        "name": "IRIDIUM 33 DEB",
        "group": "iridium-33-debris",
        "lat": 81.65234857102925,
        "lon": 136.7004936816373,
        "alt_km": 619.1247307070371,
        "timestamp": "2025-12-13T15:35:12.489961+00:00",
        "meta_object_name": "IRIDIUM 33 DEB",
        "meta_object_id": "1997-051TY",
        "meta_epoch": "2025-12-07T18:02:16.498176",
        "meta_mean_motion": 14.80542095,
        "meta_eccentricity": 0.00101746,
        "meta_inclination": 86.3429,
        "meta_ra_of_asc_node": 345.2367,
        "meta_arg_of_pericenter": 205.9072,
        "meta_mean_anomaly": 154.1641,
        "meta_ephemeris_type": 0,
        "meta_classification_type": "U",
        "meta_norad_cat_id": 35915,
        "meta_element_set_no": 999,
        "meta_rev_at_epoch": 8012,
        "meta_bstar": 0.0030076362,
        "meta_mean_motion_dot": 0.00023136,
        "meta_mean_motion_ddot": 0,
        "tle_line1": "1 35915U 97051TY  25341.75157984  .00023136  00000+0  30076-2 0  9998",
        "tle_line2": "2 35915  86.3429 345.2367 0010174 205.9072 154.1641 14.80542095 80126"
      },
      "geometry": {
        "type": "Point",
        "coordinates": [
          136.7004936816373,
          81.65234857102925
        ]
      }
    },
    {
      "type": "Feature",
      "properties": {
        "norad_id": 35918,
        "name": "IRIDIUM 33 DEB",
        "group": "iridium-33-debris",
        "lat": 24.47279670820022,
        "lon": -106.21656286345434,
        "alt_km": 701.7672308254578,
        "timestamp": "2025-12-13T15:35:12.489972+00:00",
        "meta_object_name": "IRIDIUM 33 DEB",
        "meta_object_id": "1997-051UB",
        "meta_epoch": "2025-12-13T00:32:30.278688",
        "meta_mean_motion": 14.51250424,
        "meta_eccentricity": 0.00275912,
        "meta_inclination": 86.401,
        "meta_ra_of_asc_node": 75.694,
        "meta_arg_of_pericenter": 168.7296,
        "meta_mean_anomaly": 313.6735,
        "meta_ephemeris_type": 0,
        "meta_classification_type": "U",
        "meta_norad_cat_id": 35918,
        "meta_element_set_no": 999,
        "meta_rev_at_epoch": 85211,
        "meta_bstar": 0.0017263949,
        "meta_mean_motion_dot": 6.917e-05,
        "meta_mean_motion_ddot": 0,
        "tle_line1": "1 35918U 97051UB  25347.02257267  .00006917  00000+0  17264-2 0  9994",
        "tle_line2": "2 35918  86.4010  75.6940 0027591 168.7296 313.6735 14.51250424852114"
      },
      "geometry": {
        "type": "Point",
        "coordinates": [
          -106.21656286345434,
          24.47279670820022
        ]
      }
    },
    {
      "type": "Feature",
      "properties": {
        "norad_id": 35929,
        "name": "IRIDIUM 33 DEB",
        "group": "iridium-33-debris",
        "lat": 73.45703949911055,
        "lon": -35.3308026970098,
        "alt_km": 542.679648814531,
        "timestamp": "2025-12-13T15:35:12.489982+00:00",
        "meta_object_name": "IRIDIUM 33 DEB",
        "meta_object_id": "1997-051UN",
        "meta_epoch": "2025-12-12T04:05:36.007296",
        "meta_mean_motion": 15.02344569,
        "meta_eccentricity": 0.00182618,
        "meta_inclination": 86.3329,
        "meta_ra_of_asc_node": 312.9007,
        "meta_arg_of_pericenter": 38.7849,
        "meta_mean_anomaly": 321.4691,
        "meta_ephemeris_type": 0,
        "meta_classification_type": "U",
        "meta_norad_cat_id": 35929,
        "meta_element_set_no": 999,
        "meta_rev_at_epoch": 87771,
        "meta_bstar": 0.0034493964,
        "meta_mean_motion_dot": 0.0004602,
        "meta_mean_motion_ddot": 0,
        "tle_line1": "1 35929U 97051UN  25346.17055564  .00046020  00000+0  34494-2 0  9990",
        "tle_line2": "2 35929  86.3329 312.9007 0018261  38.7849 321.4691 15.02344569877715"
      },
      "geometry": {
        "type": "Point",
        "coordinates": [
          -35.3308026970098,
          73.45703949911055
        ]
      }
    },
    {
      "type": "Feature",
      "properties": {
        "norad_id": 36011,
        "name": "IRIDIUM 33 DEB",
        "group": "iridium-33-debris",
        "lat": 6.825002747894845,
        "lon": -145.40506388225404,
        "alt_km": 746.5979946722682,
        "timestamp": "2025-12-13T15:35:12.489992+00:00",
        "meta_object_name": "IRIDIUM 33 DEB",
        "meta_object_id": "1997-051US",
        "meta_epoch": "2025-12-11T21:42:29.079072",
        "meta_mean_motion": 14.41326157,
        "meta_eccentricity": 0.0017563,
        "meta_inclination": 86.3411,
        "meta_ra_of_asc_node": 35.7829,
        "meta_arg_of_pericenter": 218.6873,
        "meta_mean_anomaly": 266.0791,
        "meta_ephemeris_type": 0,
        "meta_classification_type": "U",
        "meta_norad_cat_id": 36011,
        "meta_element_set_no": 999,
        "meta_rev_at_epoch": 64528,
        "meta_bstar": 0.00076231,
        "meta_mean_motion_dot": 2.489e-05,
        "meta_mean_motion_ddot": 0,
        "tle_line1": "1 36011U 97051US  25345.90450323  .00002489  00000+0  76231-3 0  9992",
        "tle_line2": "2 36011  86.3411  35.7829 0017563 218.6873 266.0791 14.41326157645287"
      },
      "geometry": {
        "type": "Point",
        "coordinates": [
          -145.40506388225404,
          6.825002747894845
        ]
      }
    },
    {
      "type": "Feature",
      "properties": {
        "norad_id": 36012,
        "name": "IRIDIUM 33 DEB",
        "group": "iridium-33-debris",
        "lat": 27.050276191686667,
        "lon": -51.01118015835768,
        "alt_km": 917.0027889065514,
        "timestamp": "2025-12-13T15:35:12.490001+00:00",
        "meta_object_name": "IRIDIUM 33 DEB",
        "meta_object_id": "1997-051UT",
        "meta_epoch": "2025-12-12T20:50:29.979456",
        "meta_mean_motion": 14.19027821,
        "meta_eccentricity": 0.02117198,
        "meta_inclination": 86.4424,
        "meta_ra_of_asc_node": 307.4831,
        "meta_arg_of_pericenter": 262.8093,
        "meta_mean_anomaly": 94.8983,
        "meta_ephemeris_type": 0,
        "meta_classification_type": "U",
        "meta_norad_cat_id": 36012,
        "meta_element_set_no": 999,
        "meta_rev_at_epoch": 65486,
        "meta_bstar": 0.0085459382,
        "meta_mean_motion_dot": 0.00022367,
        "meta_mean_motion_ddot": 0,
        "tle_line1": "1 36012U 97051UT  25346.86840254  .00022367  00000+0  85459-2 0  9993",
        "tle_line2": "2 36012  86.4424 307.4831 0211719 262.8093  94.8983 14.19027821654864"
      },
      "geometry": {
        "type": "Point",
        "coordinates": [
          -51.01118015835768,
          27.050276191686667
        ]
      }
    },
    {
      "type": "Feature",
      "properties": {
        "norad_id": 36028,
        "name": "IRIDIUM 33 DEB",
        "group": "iridium-33-debris",
        "lat": -3.1746797382066685,
        "lon": -53.93420765436364,
        "alt_km": 575.7584148945307,
        "timestamp": "2025-12-13T15:35:12.490011+00:00",
        "meta_object_name": "IRIDIUM 33 DEB",
        "meta_object_id": "1997-051VK",
        "meta_epoch": "2025-12-12T15:30:35.875584",
        "meta_mean_motion": 14.95294333,
        "meta_eccentricity": 0.00215728,
        "meta_inclination": 86.3216,
        "meta_ra_of_asc_node": 306.742,
        "meta_arg_of_pericenter": 53.7253,
        "meta_mean_anomaly": 306.5965,
        "meta_ephemeris_type": 0,
        "meta_classification_type": "U",
        "meta_norad_cat_id": 36028,
        "meta_element_set_no": 999,
        "meta_rev_at_epoch": 87123,
        "meta_bstar": 0.0032300805,
        "meta_mean_motion_dot": 0.00035897,
        "meta_mean_motion_ddot": 0,
        "tle_line1": "1 36028U 97051VK  25346.64624856  .00035897  00000+0  32301-2 0  9994",
        "tle_line2": "2 36028  86.3216 306.7420 0021572  53.7253 306.5965 14.95294333871239"
      },
      "geometry": {
        "type": "Point",
        "coordinates": [
          -53.93420765436364,
          -3.1746797382066685
        ]
      }
    },
    {
      "type": "Feature",
      "properties": {
        "norad_id": 36080,
        "name": "IRIDIUM 33 DEB",
        "group": "iridium-33-debris",
        "lat": 55.64458596680781,
        "lon": 12.99302430952663,
        "alt_km": 733.257469549847,
        "timestamp": "2025-12-13T15:35:12.490021+00:00",
        "meta_object_name": "IRIDIUM 33 DEB",
        "meta_object_id": "1997-051VM",
        "meta_epoch": "2025-12-12T07:47:12.921504",
        "meta_mean_motion": 14.46603626,
        "meta_eccentricity": 0.0018143,
        "meta_inclination": 86.3202,
        "meta_ra_of_asc_node": 8.1679,
        "meta_arg_of_pericenter": 158.128,
        "meta_mean_anomaly": 202.0701,
        "meta_ephemeris_type": 0,
        "meta_classification_type": "U",
        "meta_norad_cat_id": 36080,
        "meta_element_set_no": 999,
        "meta_rev_at_epoch": 47408,
        "meta_bstar": 0.00097514146,
        "meta_mean_motion_dot": 3.542e-05,
        "meta_mean_motion_ddot": 0,
        "tle_line1": "1 36080U 97051VM  25346.32445511  .00003542  00000+0  97514-3 0  9996",
        "tle_line2": "2 36080  86.3202   8.1679 0018143 158.1280 202.0701 14.46603626474086"
      },
      "geometry": {
        "type": "Point",
        "coordinates": [
          12.99302430952663,
          55.64458596680781
        ]
      }
    }
  ]
}